NORAD_CAT_ID,OBJECT_NAME,OBJECT_TYPE,EPOCH,MEAN_MOTION,ECCENTRICITY,INCLINATION,RA_OF_ASC_NODE,ARG_OF_PERICENTER,MEAN_ANOMALY,BSTAR,MEAN_MOTION_DOT,MEAN_MOTION_DDOT,TLE_LINE0,TLE_LINE1,TLE_LINE2,SEMIMAJOR_AXIS,PERIOD,APOGEE,PERIGEE,DECAYED
51863.0,STARLINK-3555,PAYLOAD,2023-05-22 16:31:12,15.08853611,0.0001047,53.2169,277.0633,73.2675,286.8432,0.00040577,6.178e-05,0.0,0 STARLINK-3555,1 51863U 22022M   23142.68833925  .00006178  00000-0  40577-3 0  9995,2 51863  53.2169 277.0633 0001047  73.2675 286.8432 15.08853611 68826,6917.839,95.437,540.428,538.979,0.0
51863.0,STARLINK-3555,PAYLOAD,2023-05-23 08:25:04,15.0884093,0.0001027,53.2171,274.0908,81.0698,279.041,0.0002599,3.851e-05,0.0,0 STARLINK-3555,1 51863U 22022M   23143.35074590  .00003851  00000-0  25990-3 0  9992,2 51863  53.2171 274.0908 0001027  81.0698 279.0410 15.08840930 68922,6917.878,95.437,540.453,539.032,0.0
51863.0,STARLINK-3555,PAYLOAD,2023-05-23 16:22:00,15.08840845,0.0001071,53.217,272.6023,73.2316,286.8794,0.00021157,3.081e-05,0.0,0 STARLINK-3555,1 51863U 22022M   23143.68194710  .00003081  00000-0  21157-3 0  9991,2 51863  53.2170 272.6023 0001071  73.2316 286.8794 15.08840845 68973,6917.878,95.438,540.484,539.002,0.0
51863.0,STARLINK-3555,PAYLOAD,2023-05-24 08:15:51,15.08843342,0.000129,53.2175,269.6311,67.129,292.9838,0.00012455,1.695e-05,0.0,0 STARLINK-3555,1 51863U 22022M   23144.34434770  .00001695  00000-0  12455-3 0  9998,2 51863  53.2175 269.6311 0001290  67.1290 292.9838 15.08843342 69074,6917.87,95.437,540.628,538.843,0.0
51863.0,STARLINK-3555,PAYLOAD,2023-05-24 14:37:24,15.08845161,0.0001042,53.2162,268.4401,74.5164,285.5943,0.00012846,1.758e-05,0.0,0 STARLINK-3555,1 51863U 22022M   23144.60930573  .00001758  00000-0  12846-3 0  9993,2 51863  53.2162 268.4401 0001042  74.5164 285.5943 15.08845161 69115,6917.865,95.437,540.45,539.009,0.0
51863.0,STARLINK-3555,PAYLOAD,2023-05-25 14:28:11,15.0884023,0.0001225,53.2171,263.9808,72.088,288.0246,0.00014086,1.955e-05,0.0,0 STARLINK-3555,1 51863U 22022M   23145.60290955  .00001955  00000-0  14086-3 0  9994,2 51863  53.2171 263.9808 0001225  72.0880 288.0246 15.08840230 69269,6917.88,95.438,540.592,538.897,0.0
51863.0,STARLINK-3555,PAYLOAD,2023-05-25 17:38:57,15.08845729,0.0001176,53.2163,263.3846,79.653,280.4595,0.0002058,2.989e-05,0.0,0 STARLINK-3555,1 51863U 22022M   23145.73538606  .00002989  00000-0  20580-3 0  9990,2 51863  53.2163 263.3846 0001176  79.6530 280.4595 15.08845729 69289,6917.863,95.437,540.541,538.914,0.0
51863.0,STARLINK-3555,PAYLOAD,2023-05-26 12:43:35,15.08835544,0.0001069,53.216,259.8146,97.7331,262.3783,0.00022683,3.324e-05,0.0,0 STARLINK-3555,1 51863U 22022M   23146.53027011  .00003324  00000-0  22683-3 0  9992,2 51863  53.2160 259.8146 0001069  97.7331 262.3783 15.08835544 69406,6917.894,95.438,540.499,539.019,0.0
51863.0,STARLINK-3555,PAYLOAD,2023-05-27 14:09:45,15.08831118,9.39e-05,53.2171,255.0568,89.7956,270.3144,0.00025978,3.848e-05,0.0,0 STARLINK-3555,1 51863U 22022M   23147.59011011  .00003848  00000-0  25978-3 0  9993,2 51863  53.2171 255.0568 0000939  89.7956 270.3144 15.08831118 69563,6917.908,95.438,540.422,539.123,0.0
51863.0,STARLINK-3555,PAYLOAD,2023-05-27 23:42:03,15.08843661,8.56e-05,53.2162,253.2722,76.6702,283.4385,6.308e-05,7.16e-06,0.0,0 STARLINK-3555,1 51863U 22022M   23147.98754409  .00000716  00000-0  63080-4 0  9999,2 51863  53.2162 253.2722 0000856  76.6702 283.4385 15.08843661 69622,6917.869,95.437,540.326,539.142,0.0
51863.0,STARLINK-3555,PAYLOAD,2023-05-28 10:49:46,15.08837836,9.06e-05,53.2167,251.1938,95.1928,264.9167,7.4593e-05,9e-06,0.0,0 STARLINK-3555,1 51863U 22022M   23148.45122912  .00000900  00000-0  74593-4 0  9996,2 51863  53.2167 251.1938 0000906  95.1928 264.9167 15.08837836 69691,6917.887,95.438,540.379,539.125,0.0
51863.0,STARLINK-3555,PAYLOAD,2023-05-28 17:11:18,15.08845878,9.22e-05,53.2167,250.0039,91.0711,269.0387,0.00013861,1.919e-05,0.0,0 STARLINK-3555,1 51863U 22022M   23148.71618260  .00001919  00000-0  13861-3 0  9992,2 51863  53.2167 250.0039 0000922  91.0711 269.0387 15.08845878 69734,6917.862,95.437,540.365,539.09,0.0
51863.0,STARLINK-3555,PAYLOAD,2023-05-28 23:32:51,15.08841345,9.18e-05,53.2166,248.8141,95.1535,264.9562,0.00010713,1.418e-05,0.0,0 STARLINK-3555,1 51863U 22022M   23148.98114661  .00001418  00000-0  10713-3 0  9994,2 51863  53.2166 248.8141 0000918  95.1535 264.9562 15.08841345 69774,6917.876,95.437,540.376,539.106,0.0
51863.0,STARLINK-3555,PAYLOAD,2023-05-29 13:51:19,15.08844393,8.68e-05,53.2168,246.1382,95.2228,264.8863,9.3102e-05,1.194e-05,0.0,0 STARLINK-3555,1 51863U 22022M   23149.57730455  .00001194  00000-0  93102-4 0  9990,2 51863  53.2168 246.1382 0000868  95.2228 264.8863 15.08844393 69867,6917.867,95.437,540.332,539.131,0.0
51863.0,STARLINK-3555,PAYLOAD,2023-05-30 08:55:57,15.08836187,8.94e-05,53.2166,242.5699,91.3222,268.7873,7.8018e-06,-1.64e-06,0.0,0 STARLINK-3555,1 51863U 22022M   23150.37219318 -.00000164  00000-0  78018-5 0  9997,2 51863  53.2166 242.5699 0000894  91.3222 268.7873 15.08836187 69985,6917.892,95.438,540.376,539.139,0.0
51863.0,STARLINK-3555,PAYLOAD,2023-05-30 12:06:43,15.08838577,8.61e-05,53.2166,241.9753,90.7423,269.3668,2.7935e-05,1.57e-06,0.0,0 STARLINK-3555,1 51863U 22022M   23150.50467127  .00000157  00000-0  27935-4 0  9997,2 51863  53.2166 241.9753 0000861  90.7423 269.3668 15.08838577 70008,6917.885,95.438,540.345,539.154,0.0
51863.0,STARLINK-3555,PAYLOAD,2023-05-30 15:17:29,15.08840448,8.79e-05,53.2166,241.3804,96.9804,263.1289,3.5494e-05,2.77e-06,0.0,0 STARLINK-3555,1 51863U 22022M   23150.63714977  .00000277  00000-0  35494-4 0  9991,2 51863  53.2166 241.3804 0000879  96.9804 263.1289 15.08840448 70022,6917.879,95.438,540.352,539.136,0.0
51863.0,STARLINK-3555,PAYLOAD,2023-05-31 10:22:07,15.08843594,8.24e-05,53.2165,237.8126,92.1712,267.9375,0.00010001,1.304e-05,0.0,0 STARLINK-3555,1 51863U 22022M   23151.43202601  .00001304  00000-0  10001-3 0  9994,2 51863  53.2165 237.8126 0000824  92.1712 267.9375 15.08843594 70140,6917.869,95.437,540.304,539.164,0.0
51863.0,STARLINK-3555,PAYLOAD,2023-05-31 11:57:30,15.08846653,8.41e-05,53.2165,237.5149,92.8289,267.28,9.9277e-05,1.293e-05,0.0,0 STARLINK-3555,1 51863U 22022M   23151.49826397  .00001293  00000-0  99277-4 0  9994,2 51863  53.2165 237.5149 0000841  92.8289 267.2800 15.08846653 70153,6917.86,95.437,540.307,539.143,0.0
51863.0,STARLINK-3555,PAYLOAD,2023-05-31 15:08:15,15.08851938,8.78e-05,53.2167,236.9193,96.2692,263.84,0.00013039,1.789e-05,0.0,0 STARLINK-3555,1 51863U 22022M   23151.63073919  .00001789  00000-0  13039-3 0  9995,2 51863  53.2167 236.9193 0000878  96.2692 263.8400 15.08851938 70175,6917.844,95.437,540.316,539.102,0.0
51863.0,STARLINK-3555,PAYLOAD,2023-05-31 23:05:11,15.08846701,9.16e-05,53.2161,235.4358,69.665,290.4441,5.2961e-05,5.55e-06,0.0,0 STARLINK-3555,1 51863U 22022M   23151.96194402  .00000555  00000-0  52961-4 0  9990,2 51863  53.2161 235.4358 0000916  69.6650 290.4441 15.08846701 70226,6917.86,95.437,540.359,539.091,0.0
51863.0,STARLINK-3555,PAYLOAD,2023-06-01 10:12:54,15.08841422,0.0001188,53.217,233.3499,86.1582,273.9546,6.9306e-05,8.15e-06,0.0,0 STARLINK-3555,1 51863U 22022M   23152.42562945  .00000815  00000-0  69306-4 0  9993,2 51863  53.2170 233.3499 0001188  86.1582 273.9546 15.08841422 70293,6917.876,95.437,540.563,538.919,0.0
51863.0,STARLINK-3555,PAYLOAD,2023-06-02 11:39:04,15.08842829,8.9e-05,53.2162,228.5932,90.4274,269.682,-2.8145e-06,-3.33e-06,0.0,0 STARLINK-3555,1 51863U 22022M   23153.48547104 -.00000333  00000-0 -28145-5 0  9994,2 51863  53.2162 228.5932 0000890  90.4274 269.6820 15.08842829 70454,6917.872,95.437,540.352,539.121,0.0
51863.0,STARLINK-3555,PAYLOAD,2023-06-03 08:19:05,15.08836309,9.47e-05,53.216,224.7274,83.1474,276.9626,7.0472e-05,8.34e-06,0.0,0 STARLINK-3555,1 51863U 22022M   23154.34659519  .00000834  00000-0  70472-4 0  9997,2 51863  53.2160 224.7274 0000947  83.1474 276.9626 15.08836309 70588,6917.892,95.438,540.412,539.102,0.0
51863.0,STARLINK-3555,PAYLOAD,2023-06-03 11:29:52,15.08837092,9.24e-05,53.2159,224.1325,88.1835,271.9263,6.5116e-05,7.49e-06,0.0,0 STARLINK-3555,1 51863U 22022M   23154.47907456  .00000749  00000-0  65116-4 0  9991,2 51863  53.2159 224.1325 0000924  88.1835 271.9263 15.08837092 70603,6917.889,95.438,540.393,539.115,0.0
51863.0,STARLINK-3555,PAYLOAD,2023-06-03 21:02:10,15.0883754,9.24e-05,53.2159,222.3481,89.6883,270.4215,7.0131e-05,8.29e-06,0.0,0 STARLINK-3555,1 51863U 22022M   23154.87651486  .00000829  00000-0  70131-4 0  9996,2 51863  53.2159 222.3481 0000924  89.6883 270.4215 15.08837540 70660,6917.888,95.438,540.392,539.114,0.0
51863.0,STARLINK-3555,PAYLOAD,2023-06-04 09:45:15,15.08838705,9.3e-05,53.2159,219.9694,82.9126,277.1972,0.00010276,1.348e-05,0.0,0 STARLINK-3555,1 51863U 22022M   23155.40643456  .00001348  00000-0  10276-3 0  9994,2 51863  53.2159 219.9694 0000930  82.9126 277.1972 15.08838705 70748,6917.884,95.438,540.393,539.106,0.0
51863.0,STARLINK-3555,PAYLOAD,2023-06-04 12:56:02,15.08841367,9.38e-05,53.2161,219.3749,78.2168,281.8929,0.00011035,1.469e-05,0.0,0 STARLINK-3555,1 51863U 22022M   23155.53891264  .00001469  00000-0  11035-3 0  9998,2 51863  53.2161 219.3749 0000938  78.2168 281.8929 15.08841367 70762,6917.876,95.437,540.39,539.092,0.0
51863.0,STARLINK-3555,PAYLOAD,2023-06-04 20:52:58,15.08838136,8.85e-05,53.2156,217.8876,84.7373,275.372,6.1121e-05,6.85e-06,0.0,0 STARLINK-3555,1 51863U 22022M   23155.87011604  .00000685  00000-0  61121-4 0  9998,2 51863  53.2156 217.8876 0000885  84.7373 275.3720 15.08838136 70814,6917.886,95.438,540.363,539.139,0.0
51863.0,STARLINK-3555,PAYLOAD,2023-06-05 09:36:03,15.08834429,9.76e-05,53.2157,215.5089,85.8582,274.2521,3.9089e-05,3.34e-06,0.0,0 STARLINK-3555,1 51863U 22022M   23156.40004053  .00000334  00000-0  39089-4 0  9997,2 51863  53.2157 215.5089 0000976  85.8582 274.2521 15.08834429 70897,6917.897,95.438,540.438,539.087,0.0
